IRIDIUM 119             
1 42959U 17061E   25150.16731818  .00000289  00000+0  95987-4 0  9992
2 42959  86.4003 185.3084 0002350  99.0361 261.1101 14.34219836399913
IRIDIUM 107             
1 42960U 17061F   25149.97702307  .00000189  00000+0  60587-4 0  9999
2 42960  86.4005 185.4067 0002875  96.8881 263.2642 14.34217618399901
IRIDIUM 132             
1 42961U 17061G   25149.35544575  .00000160  00000+0  50194-4 0  9995
2 42961  86.4003 185.6483 0002441  94.0120 266.1355 14.34219358399804
IRIDIUM 136             
1 42962U 17061H   25150.15461512  .00000012  00000+0 -27714-5 0  9995
2 42962  86.4007 185.3194 0002309  98.4070 261.7388 14.34217667399932
IRIDIUM 139             
1 42963U 17061J   25150.16095401  .00000013  00000+0 -23380-5 0  9993
2 42963  86.4005 185.3726 0002607  95.0076 265.1417 14.34216330399940
IRIDIUM 125             
1 42964U 17061K   25150.14827261 -.00000004  00000+0 -83435-5 0  9997
2 42964  86.4011 185.4316 0002493 107.0575 253.0894 14.34217623399957
IRIDIUM 135             
1 43070U 17083A   25149.91309217  .00000042  00000+0  80697-5 0  9996
2 43070  86.3951 122.2572 0002218  81.4242 278.7205 14.34217748389218
IRIDIUM 138             
1 43071U 17083B   25150.21753633  .00000031  00000+0  39487-5 0  9996
2 43071  86.3942 121.8030 0001991  99.1951 260.9470 14.34217677389244
